{"type":"FeatureCollection","features":[{"type":"Feature","id":"juniper-overlook","properties":{"Park Name":"Juniper Overlook","Description":"A fictional ridge viewpoint above Pine Hollow.","Activities":"Hiking, Sightseeing"},"geometry":{"type":"Point","coordinates":[-72.12,42.07]}},{"type":"Feature","id":"fern-creek","properties":{"Park Name":"Fern Creek","Description":"A fictional woodland creek and picnic area.","Activities":"Hiking, Picnicking"},"geometry":{"type":"Point","coordinates":[-72.08,42.01]}},{"type":"Feature","id":"maple-crossing","properties":{"Park Name":"Maple Crossing","Description":"A fictional village center with local shops.","Activities":"Sightseeing, Shopping"},"geometry":{"type":"Point","coordinates":[-72.2,42.11]}}]}
